{"type": "FeatureCollection", "features": [ {"type": "Feature", "properties": {"norad_id": 66605, "name": "STARLINK-36052", "group": "last-30-days", "lat": -41.25614001110652, "lon": 0.6472373836799874, "alt_km": 445.8696933923238, "timestamp": "2025-12-26T22:28:04.495992+00:00", "meta": {"OBJECT_NAME": "STARLINK-36052", "OBJECT_ID": "2025-270T", "EPOCH": "2025-12-26T08:55:05.833056", "MEAN_MOTION": 15.40726118, "ECCENTRICITY": 0.0001941, "INCLINATION": 43.0005, "RA_OF_ASC_NODE": 113.6312, "ARG_OF_PERICENTER": 272.9658, "MEAN_ANOMALY": 87.0977, "EPHEMERIS_TYPE": 0, "CLASSIFICATION_TYPE": "U", "NORAD_CAT_ID": 66605, "ELEMENT_SET_NO": 999, "REV_AT_EPOCH": 645, "BSTAR": 0.0012181, "MEAN_MOTION_DOT": 0.00050964, "MEAN_MOTION_DDOT": 0}, "tle": {"line1": "1 66605U 25270T   25360.37159529  .00050964  00000+0  12181-2 0  9994", "line2": "2 66605  43.0005 113.6312 0001941 272.9658  87.0977 15.40726118  6456"}}, "geometry": {"type": "Point", "coordinates": [0.6472373836799874, -41.25614001110652]}}, {"type": "Feature", "properties": {"norad_id": 66606, "name": "STARLINK-36063", "group": "last-30-days", "lat": -12.022277728642878, "lon": 96.95098139158077, "alt_km": 444.46745102842124, "timestamp": "2025-12-26T22:28:04.496002+00:00", "meta": {"OBJECT_NAME": "STARLINK-36063", "OBJECT_ID": "2025-270U", "EPOCH": "2025-12-26T14:45:55.749312", "MEAN_MOTION": 15.40708054, "ECCENTRICITY": 0.0002133, "INCLINATION": 43.0001, "RA_OF_ASC_NODE": 112.0118, "ARG_OF_PERICENTER": 277.3138, "MEAN_ANOMALY": 82.7476, "EPHEMERIS_TYPE": 0, "CLASSIFICATION_TYPE": "U", "NORAD_CAT_ID": 66606, "ELEMENT_SET_NO": 999, "REV_AT_EPOCH": 649, "BSTAR": 0.0010041, "MEAN_MOTION_DOT": 0.00041884, "MEAN_MOTION_DDOT": 0}, "tle": {"line1": "1 66606U 25270U   25360.61522858  .00041884  00000+0  10041-2 0  9995", "line2": "2 66606  43.0001 112.0118 0002133 277.3138  82.7476 15.40708054  6495"}}, "geometry": {"type": "Point", "coordinates": [96.95098139158077, -12.022277728642878]}}, {"type": "Feature", "properties": {"norad_id": 66607, "name": "STARLINK-35993", "group": "last-30-days", "lat": -42.94092153471348, "lon": 17.179864416961028, "alt_km": 445.50578160673376, "timestamp": "2025-12-26T22:28:04.496015+00:00", "meta": {"OBJECT_NAME": "STARLINK-35993", "OBJECT_ID": "2025-270V", "EPOCH": "2025-12-26T15:05:16.667232", "MEAN_MOTION": 15.40730597, "ECCENTRICITY": 0.000253, "INCLINATION": 43.0049, "RA_OF_ASC_NODE": 112.1204, "ARG_OF_PERICENTER": 272.959, "MEAN_ANOMALY": 87.0977, "EPHEMERIS_TYPE": 0, "CLASSIFICATION_TYPE": "U", "NORAD_CAT_ID": 66607, "ELEMENT_SET_NO": 999, "REV_AT_EPOCH": 639, "BSTAR": 0.0014337, "MEAN_MOTION_DOT": 0.00060124, "MEAN_MOTION_DDOT": 0}, "tle": {"line1": "1 66607U 25270V   25360.62866513  .00060124  00000+0  14337-2 0  9996", "line2": "2 66607  43.0049 112.1204 0002530 272.9590  87.0977 15.40730597  6399"}}, "geometry": {"type": "Point", "coordinates": [17.179864416961028, -42.94092153471348]}}, {"type": "Feature", "properties": {"norad_id": 66608, "name": "STARLINK-36036", "group": "last-30-days", "lat": -3.6889598638836696, "lon": 106.16462752045899, "alt_km": 444.08384501824366, "timestamp": "2025-12-26T22:28:04.496026+00:00", "meta": {"OBJECT_NAME": "STARLINK-36036", "OBJECT_ID": "2025-270W", "EPOCH": "2025-12-26T00:00:02.000160", "MEAN_MOTION": 15.40691202, "ECCENTRICITY": 0.00015514, "INCLINATION": 43.0003, "RA_OF_ASC_NODE": 115.5277, "ARG_OF_PERICENTER": 272.8529, "MEAN_ANOMALY": 283.3616, "EPHEMERIS_TYPE": 0, "CLASSIFICATION_TYPE": "U", "NORAD_CAT_ID": 66608, "ELEMENT_SET_NO": 999, "REV_AT_EPOCH": 604, "BSTAR": -0.00015885025, "MEAN_MOTION_DOT": -6.931e-05, "MEAN_MOTION_DDOT": 0}, "tle": {"line1": "1 66608U 25270W   25360.00002315 -.00006931  00000+0 -15885-3 0  9999", "line2": "2 66608  43.0003 115.5277 0001551 272.8529 283.3616 15.40691202  6042"}}, "geometry": {"type": "Point", "coordinates": [106.16462752045899, -3.6889598638836696]}}, {"type": "Feature", "properties": {"norad_id": 66609, "name": "STARLINK-36034", "group": "last-30-days", "lat": 13.14122069133215, "lon": 124.58379565238286, "alt_km": 442.1968242577077, "timestamp": "2025-12-26T22:28:04.496037+00:00", "meta": {"OBJECT_NAME": "STARLINK-36034", "OBJECT_ID": "2025-270X", "EPOCH": "2025-12-26T17:42:57.908736", "MEAN_MOTION": 15.4069031, "ECCENTRICITY": 4.03e-05, "INCLINATION": 42.9964, "RA_OF_ASC_NODE": 111.2138, "ARG_OF_PERICENTER": 201.821, "MEAN_ANOMALY": 158.2629, "EPHEMERIS_TYPE": 0, "CLASSIFICATION_TYPE": "U", "NORAD_CAT_ID": 66609, "ELEMENT_SET_NO": 999, "REV_AT_EPOCH": 635, "BSTAR": 0.0011145, "MEAN_MOTION_DOT": 0.00046521, "MEAN_MOTION_DDOT": 0}, "tle": {"line1": "1 66609U 25270X   25360.73817024  .00046521  00000+0  11145-2 0  9992", "line2": "2 66609  42.9964 111.2138 0000403 201.8210 158.2629 15.40690310  6357"}}, "geometry": {"type": "Point", "coordinates": [124.58379565238286, 13.14122069133215]}}, {"type": "Feature", "properties": {"norad_id": 66610, "name": "STARLINK-35680", "group": "last-30-days", "lat": -39.03902847709118, "lon": 49.793305897845414, "alt_km": 446.050431032957, "timestamp": "2025-12-26T22:28:04.496047+00:00", "meta": {"OBJECT_NAME": "STARLINK-35680", "OBJECT_ID": "2025-270Y", "EPOCH": "2025-12-26T14:58:49.990080", "MEAN_MOTION": 15.40709304, "ECCENTRICITY": 0.000156, "INCLINATION": 42.9985, "RA_OF_ASC_NODE": 112.0805, "ARG_OF_PERICENTER": 278.6419, "MEAN_ANOMALY": 81.4261, "EPHEMERIS_TYPE": 0, "CLASSIFICATION_TYPE": "U", "NORAD_CAT_ID": 66610, "ELEMENT_SET_NO": 999, "REV_AT_EPOCH": 660, "BSTAR": 0.0016797, "MEAN_MOTION_DOT": 0.00070534, "MEAN_MOTION_DDOT": 0}, "tle": {"line1": "1 66610U 25270Y   25360.62418970  .00070534  00000+0  16797-2 0  9998", "line2": "2 66610  42.9985 112.0805 0001560 278.6419  81.4261 15.40709304  6601"}}, "geometry": {"type": "Point", "coordinates": [49.793305897845414, -39.03902847709118]}}, {"type": "Feature", "properties": {"norad_id": 66611, "name": "STARLINK-35583", "group": "last-30-days", "lat": -27.51827556055869, "lon": 76.2314451246079, "alt_km": 445.5034121643839, "timestamp": "2025-12-26T22:28:04.496057+00:00", "meta": {"OBJECT_NAME": "STARLINK-35583", "OBJECT_ID": "2025-270Z", "EPOCH": "2025-12-26T16:25:44.103072", "MEAN_MOTION": 15.40707676, "ECCENTRICITY": 0.0001634, "INCLINATION": 42.9993, "RA_OF_ASC_NODE": 111.6744, "ARG_OF_PERICENTER": 285.7881, "MEAN_ANOMALY": 74.2796, "EPHEMERIS_TYPE": 0, "CLASSIFICATION_TYPE": "U", "NORAD_CAT_ID": 66611, "ELEMENT_SET_NO": 999, "REV_AT_EPOCH": 661, "BSTAR": 0.0014848, "MEAN_MOTION_DOT": 0.00062243, "MEAN_MOTION_DDOT": 0}, "tle": {"line1": "1 66611U 25270Z   25360.68453823  .00062243  00000+0  14848-2 0  9994", "line2": "2 66611  42.9993 111.6744 0001634 285.7881  74.2796 15.40707676  6616"}}, "geometry": {"type": "Point", "coordinates": [76.2314451246079, -27.51827556055869]}}, {"type": "Feature", "properties": {"norad_id": 66612, "name": "STARLINK-36039", "group": "last-30-days", "lat": 39.46373864252647, "lon": 172.89107857014545, "alt_km": 438.3504781305892, "timestamp": "2025-12-26T22:28:04.496068+00:00", "meta": {"OBJECT_NAME": "STARLINK-36039", "OBJECT_ID": "2025-270AA", "EPOCH": "2025-12-26T08:10:07.769280", "MEAN_MOTION": 15.4077388, "ECCENTRICITY": 0.0001563, "INCLINATION": 42.9999, "RA_OF_ASC_NODE": 114.2604, "ARG_OF_PERICENTER": 261.7567, "MEAN_ANOMALY": 98.3112, "EPHEMERIS_TYPE": 0, "CLASSIFICATION_TYPE": "U", "NORAD_CAT_ID": 66612, "ELEMENT_SET_NO": 999, "REV_AT_EPOCH": 644, "BSTAR": 0.0014141, "MEAN_MOTION_DOT": 0.00059376, "MEAN_MOTION_DDOT": 0}, "tle": {"line1": "1 66612U 25270AA  25360.34036770  .00059376  00000+0  14141-2 0  9995", "line2": "2 66612  42.9999 114.2604 0001563 261.7567  98.3112 15.40773880  6443"}}, "geometry": {"type": "Point", "coordinates": [172.89107857014545, 39.46373864252647]}}, {"type": "Feature", "properties": {"norad_id": 66613, "name": "STARLINK-36037", "group": "last-30-days", "lat": 42.88302717564898, "lon": -154.38436232878442, "alt_km": 439.88289599316795, "timestamp": "2025-12-26T22:28:04.496078+00:00", "meta": {"OBJECT_NAME": "STARLINK-36037", "OBJECT_ID": "2025-270AB", "EPOCH": "2025-12-26T15:50:25.954368", "MEAN_MOTION": 15.4073953, "ECCENTRICITY": 0.0004344, "INCLINATION": 43.0056, "RA_OF_ASC_NODE": 112.3618, "ARG_OF_PERICENTER": 287.9955, "MEAN_ANOMALY": 72.0428, "EPHEMERIS_TYPE": 0, "CLASSIFICATION_TYPE": "U", "NORAD_CAT_ID": 66613, "ELEMENT_SET_NO": 999, "REV_AT_EPOCH": 649, "BSTAR": 0.001173, "MEAN_MOTION_DOT": 0.00049089, "MEAN_MOTION_DDOT": 0}, "tle": {"line1": "1 66613U 25270AB  25360.66002262  .00049089  00000+0  11730-2 0  9991", "line2": "2 66613  43.0056 112.3618 0004344 287.9955  72.0428 15.40739530  6493"}}, "geometry": {"type": "Point", "coordinates": [-154.38436232878442, 42.88302717564898]}}, {"type": "Feature", "properties": {"norad_id": 66614, "name": "STARLINK-36040", "group": "last-30-days", "lat": -17.075992717549482, "lon": -50.254362797734785, "alt_km": 445.3422531107508, "timestamp": "2025-12-26T22:28:04.496088+00:00", "meta": {"OBJECT_NAME": "STARLINK-36040", "OBJECT_ID": "2025-270AC", "EPOCH": "2025-12-26T16:54:45.952128", "MEAN_MOTION": 15.40718211, "ECCENTRICITY": 0.0001136, "INCLINATION": 42.999, "RA_OF_ASC_NODE": 111.8319, "ARG_OF_PERICENTER": 273.5808, "MEAN_ANOMALY": 86.4918, "EPHEMERIS_TYPE": 0, "CLASSIFICATION_TYPE": "U", "NORAD_CAT_ID": 66614, "ELEMENT_SET_NO": 999, "REV_AT_EPOCH": 634, "BSTAR": 0.0011925, "MEAN_MOTION_DOT": 0.00049868, "MEAN_MOTION_DDOT": 0}, "tle": {"line1": "1 66614U 25270AC  25360.70469852  .00049868  00000+0  11925-2 0  9990", "line2": "2 66614  42.9990 111.8319 0001136 273.5808  86.4918 15.40718211  6345"}}, "geometry": {"type": "Point", "coordinates": [-50.254362797734785, -17.075992717549482]}}]}